{"type": "FeatureCollection", "features": [ {"type": "Feature", "properties": {"norad_id": 36204, "name": "FENGYUN 1C DEB", "group": "fengyun-1c-debris", "lat": 32.57590943390108, "lon": -81.12238279888693, "alt_km": 760.1482090120162, "timestamp": "2025-12-21T03:56:51.123162+00:00", "meta": {"OBJECT_NAME": "FENGYUN 1C DEB", "OBJECT_ID": "1999-025DUD", "EPOCH": "2025-12-20T00:29:04.036704", "MEAN_MOTION": 14.34620289, "ECCENTRICITY": 0.00199406, "INCLINATION": 99.2912, "RA_OF_ASC_NODE": 91.6441, "ARG_OF_PERICENTER": 143.0845, "MEAN_ANOMALY": 217.1715, "EPHEMERIS_TYPE": 0, "CLASSIFICATION_TYPE": "U", "NORAD_CAT_ID": 36204, "ELEMENT_SET_NO": 999, "REV_AT_EPOCH": 94532, "BSTAR": 0.00076658222, "MEAN_MOTION_DOT": 2.122e-05, "MEAN_MOTION_DDOT": 0}, "tle": {"line1": "1 36204U 99025DUD 25354.02018561  .00002122  00000+0  76658-3 0  9993", "line2": "2 36204  99.2912  91.6441 0019940 143.0845 217.1715 14.34620289945328"}}, "geometry": {"type": "Point", "coordinates": [-81.12238279888693, 32.57590943390108]}}, {"type": "Feature", "properties": {"norad_id": 36206, "name": "FENGYUN 1C DEB", "group": "fengyun-1c-debris", "lat": 51.35427175676103, "lon": -151.26159577456073, "alt_km": 829.9687032257316, "timestamp": "2025-12-21T03:56:51.123171+00:00", "meta": {"OBJECT_NAME": "FENGYUN 1C DEB", "OBJECT_ID": "1999-025DUF", "EPOCH": "2025-12-16T08:29:03.735744", "MEAN_MOTION": 14.21592437, "ECCENTRICITY": 0.00302163, "INCLINATION": 98.4786, "RA_OF_ASC_NODE": 13.3653, "ARG_OF_PERICENTER": 8.6843, "MEAN_ANOMALY": 351.4852, "EPHEMERIS_TYPE": 0, "CLASSIFICATION_TYPE": "U", "NORAD_CAT_ID": 36206, "ELEMENT_SET_NO": 999, "REV_AT_EPOCH": 64472, "BSTAR": 0.00060166506, "MEAN_MOTION_DOT": 1.283e-05, "MEAN_MOTION_DDOT": 0}, "tle": {"line1": "1 36206U 99025DUF 25350.35351546  .00001283  00000+0  60167-3 0  9995", "line2": "2 36206  98.4786  13.3653 0030216   8.6843 351.4852 14.21592437644722"}}, "geometry": {"type": "Point", "coordinates": [-151.26159577456073, 51.35427175676103]}}, {"type": "Feature", "properties": {"norad_id": 36211, "name": "FENGYUN 1C DEB", "group": "fengyun-1c-debris", "lat": 39.51323114006917, "lon": -18.99527324528214, "alt_km": 985.9031894804884, "timestamp": "2025-12-21T03:56:51.123180+00:00", "meta": {"OBJECT_NAME": "FENGYUN 1C DEB", "OBJECT_ID": "1999-025DUL", "EPOCH": "2025-12-20T17:38:46.713696", "MEAN_MOTION": 14.26014194, "ECCENTRICITY": 0.0266884, "INCLINATION": 98.5045, "RA_OF_ASC_NODE": 347.676, "ARG_OF_PERICENTER": 205.353, "MEAN_ANOMALY": 153.4356, "EPHEMERIS_TYPE": 0, "CLASSIFICATION_TYPE": "U", "NORAD_CAT_ID": 36211, "ELEMENT_SET_NO": 999, "REV_AT_EPOCH": 94483, "BSTAR": 0.00026611, "MEAN_MOTION_DOT": 8.73e-06, "MEAN_MOTION_DDOT": 0}, "tle": {"line1": "1 36211U 99025DUL 25354.73526289  .00000873  00000+0  26611-3 0  9995", "line2": "2 36211  98.5045 347.6760 0266884 205.3530 153.4356 14.26014194944838"}}, "geometry": {"type": "Point", "coordinates": [-18.99527324528214, 39.51323114006917]}}, {"type": "Feature", "properties": {"norad_id": 36216, "name": "FENGYUN 1C DEB", "group": "fengyun-1c-debris", "lat": -15.512683057907498, "lon": -167.28290185916688, "alt_km": 863.6470069005154, "timestamp": "2025-12-21T03:56:51.123189+00:00", "meta": {"OBJECT_NAME": "FENGYUN 1C DEB", "OBJECT_ID": "1999-025DUR", "EPOCH": "2025-12-20T06:43:05.664288", "MEAN_MOTION": 14.18868719, "ECCENTRICITY": 0.00445798, "INCLINATION": 98.6082, "RA_OF_ASC_NODE": 14.268, "ARG_OF_PERICENTER": 356.1028, "MEAN_ANOMALY": 3.9794, "EPHEMERIS_TYPE": 0, "CLASSIFICATION_TYPE": "U", "NORAD_CAT_ID": 36216, "ELEMENT_SET_NO": 999, "REV_AT_EPOCH": 64479, "BSTAR": 0.00028691097, "MEAN_MOTION_DOT": 5.6e-06, "MEAN_MOTION_DDOT": 0}, "tle": {"line1": "1 36216U 99025DUR 25354.27992667  .00000560  00000+0  28691-3 0  9999", "line2": "2 36216  98.6082  14.2680 0044579 356.1028   3.9794 14.18868719644793"}}, "geometry": {"type": "Point", "coordinates": [-167.28290185916688, -15.512683057907498]}}, {"type": "Feature", "properties": {"norad_id": 36218, "name": "FENGYUN 1C DEB", "group": "fengyun-1c-debris", "lat": -57.787393149737845, "lon": 2.429584142850529, "alt_km": 620.6405432753236, "timestamp": "2025-12-21T03:56:51.123198+00:00", "meta": {"OBJECT_NAME": "FENGYUN 1C DEB", "OBJECT_ID": "1999-025DUT", "EPOCH": "2025-12-17T00:54:51.143616", "MEAN_MOTION": 14.71047478, "ECCENTRICITY": 0.00725997, "INCLINATION": 99.075, "RA_OF_ASC_NODE": 192.5323, "ARG_OF_PERICENTER": 282.3708, "MEAN_ANOMALY": 76.9376, "EPHEMERIS_TYPE": 0, "CLASSIFICATION_TYPE": "U", "NORAD_CAT_ID": 36218, "ELEMENT_SET_NO": 999, "REV_AT_EPOCH": 59206, "BSTAR": 0.00093044583, "MEAN_MOTION_DOT": 5.892e-05, "MEAN_MOTION_DDOT": 0}, "tle": {"line1": "1 36218U 99025DUT 25351.03809194  .00005892  00000+0  93045-3 0  9992", "line2": "2 36218  99.0750 192.5323 0072599 282.3708  76.9376 14.71047478592062"}}, "geometry": {"type": "Point", "coordinates": [2.429584142850529, -57.787393149737845]}}, {"type": "Feature", "properties": {"norad_id": 36224, "name": "FENGYUN 1C DEB", "group": "fengyun-1c-debris", "lat": -64.45025212338355, "lon": -156.52435883286606, "alt_km": 844.9135398202334, "timestamp": "2025-12-21T03:56:51.123207+00:00", "meta": {"OBJECT_NAME": "FENGYUN 1C DEB", "OBJECT_ID": "1999-025DUZ", "EPOCH": "2025-12-17T22:17:24.802656", "MEAN_MOTION": 14.12764944, "ECCENTRICITY": 0.01143272, "INCLINATION": 98.7795, "RA_OF_ASC_NODE": 39.1646, "ARG_OF_PERICENTER": 337.2178, "MEAN_ANOMALY": 22.3944, "EPHEMERIS_TYPE": 0, "CLASSIFICATION_TYPE": "U", "NORAD_CAT_ID": 36224, "ELEMENT_SET_NO": 999, "REV_AT_EPOCH": 64505, "BSTAR": 0.00011222511, "MEAN_MOTION_DOT": 1.78e-06, "MEAN_MOTION_DDOT": 0}, "tle": {"line1": "1 36224U 99025DUZ 25351.92875929  .00000178  00000+0  11223-3 0  9996", "line2": "2 36224  98.7795  39.1646 0114327 337.2178  22.3944 14.12764944645058"}}, "geometry": {"type": "Point", "coordinates": [-156.52435883286606, -64.45025212338355]}}, {"type": "Feature", "properties": {"norad_id": 36225, "name": "FENGYUN 1C DEB", "group": "fengyun-1c-debris", "lat": -35.743299344181224, "lon": 124.19043566592187, "alt_km": 537.6416810204428, "timestamp": "2025-12-21T03:56:51.123216+00:00", "meta": {"OBJECT_NAME": "FENGYUN 1C DEB", "OBJECT_ID": "1999-025DVA", "EPOCH": "2025-12-20T02:36:15.085152", "MEAN_MOTION": 15.06560433, "ECCENTRICITY": 0.00433988, "INCLINATION": 98.8177, "RA_OF_ASC_NODE": 116.5682, "ARG_OF_PERICENTER": 267.5931, "MEAN_ANOMALY": 92.0323, "EPHEMERIS_TYPE": 0, "CLASSIFICATION_TYPE": "U", "NORAD_CAT_ID": 36225, "ELEMENT_SET_NO": 999, "REV_AT_EPOCH": 66883, "BSTAR": 0.0016685065, "MEAN_MOTION_DOT": 0.00025214, "MEAN_MOTION_DDOT": 0}, "tle": {"line1": "1 36225U 99025DVA 25354.10850793  .00025214  00000+0  16685-2 0  9996", "line2": "2 36225  98.8177 116.5682 0043398 267.5931  92.0323 15.06560433668832"}}, "geometry": {"type": "Point", "coordinates": [124.19043566592187, -35.743299344181224]}}, {"type": "Feature", "properties": {"norad_id": 36226, "name": "FENGYUN 1C DEB", "group": "fengyun-1c-debris", "lat": -34.06085690062883, "lon": 43.19312098992155, "alt_km": 805.1526497708664, "timestamp": "2025-12-21T03:56:51.123225+00:00", "meta": {"OBJECT_NAME": "FENGYUN 1C DEB", "OBJECT_ID": "1999-025DVB", "EPOCH": "2025-12-16T21:56:50.014464", "MEAN_MOTION": 14.10310742, "ECCENTRICITY": 0.0095148, "INCLINATION": 98.6088, "RA_OF_ASC_NODE": 33.2455, "ARG_OF_PERICENTER": 8.6109, "MEAN_ANOMALY": 351.6668, "EPHEMERIS_TYPE": 0, "CLASSIFICATION_TYPE": "U", "NORAD_CAT_ID": 36226, "ELEMENT_SET_NO": 999, "REV_AT_EPOCH": 63821, "BSTAR": 0.0011977074, "MEAN_MOTION_DOT": 2.175e-05, "MEAN_MOTION_DDOT": 0}, "tle": {"line1": "1 36226U 99025DVB 25350.91446776  .00002175  00000+0  11977-2 0  9994", "line2": "2 36226  98.6088  33.2455 0095148   8.6109 351.6668 14.10310742638211"}}, "geometry": {"type": "Point", "coordinates": [43.19312098992155, -34.06085690062883]}}, {"type": "Feature", "properties": {"norad_id": 36229, "name": "FENGYUN 1C DEB", "group": "fengyun-1c-debris", "lat": 0.2936548255864895, "lon": -143.383139951558, "alt_km": 883.8779912548489, "timestamp": "2025-12-21T03:56:51.123234+00:00", "meta": {"OBJECT_NAME": "FENGYUN 1C DEB", "OBJECT_ID": "1999-025DVE", "EPOCH": "2025-12-13T08:14:45.074400", "MEAN_MOTION": 14.07195739, "ECCENTRICITY": 0.01025541, "INCLINATION": 100.9257, "RA_OF_ASC_NODE": 207.239, "ARG_OF_PERICENTER": 120.9915, "MEAN_ANOMALY": 240.137, "EPHEMERIS_TYPE": 0, "CLASSIFICATION_TYPE": "U", "NORAD_CAT_ID": 36229, "ELEMENT_SET_NO": 999, "REV_AT_EPOCH": 63264, "BSTAR": 0.0024305202, "MEAN_MOTION_DOT": 4.215e-05, "MEAN_MOTION_DDOT": 0}, "tle": {"line1": "1 36229U 99025DVE 25347.34357725  .00004215  00000+0  24305-2 0  9991", "line2": "2 36229 100.9257 207.2390 0102554 120.9915 240.1370 14.07195739632649"}}, "geometry": {"type": "Point", "coordinates": [-143.383139951558, 0.2936548255864895]}}, {"type": "Feature", "properties": {"norad_id": 36230, "name": "FENGYUN 1C DEB", "group": "fengyun-1c-debris", "lat": -24.760250669397728, "lon": 74.70931041441553, "alt_km": 1115.9969919963114, "timestamp": "2025-12-21T03:56:51.123243+00:00", "meta": {"OBJECT_NAME": "FENGYUN 1C DEB", "OBJECT_ID": "1999-025DVF", "EPOCH": "2025-12-13T10:59:42.315360", "MEAN_MOTION": 13.7527667, "ECCENTRICITY": 0.02170894, "INCLINATION": 99.5244, "RA_OF_ASC_NODE": 62.57, "ARG_OF_PERICENTER": 140.2916, "MEAN_ANOMALY": 221.4354, "EPHEMERIS_TYPE": 0, "CLASSIFICATION_TYPE": "U", "NORAD_CAT_ID": 36230, "ELEMENT_SET_NO": 999, "REV_AT_EPOCH": 61896, "BSTAR": 0.0027661722, "MEAN_MOTION_DOT": 3.107e-05, "MEAN_MOTION_DDOT": 0}, "tle": {"line1": "1 36230U 99025DVF 25347.45812865  .00003107  00000+0  27662-2 0  9994", "line2": "2 36230  99.5244  62.5700 0217089 140.2916 221.4354 13.75276670618964"}}, "geometry": {"type": "Point", "coordinates": [74.70931041441553, -24.760250669397728]}}]}